INTELSAT 902 (IS-902)   
1 26900U 01039A   26191.30593167 -.00000279  00000+0  00000+0 0  9990
2 26900   6.1736  71.5000 0004430  34.5835 242.1751  1.00271554 90921
INTELSAT 904 (IS-904)   
1 27380U 02007A   26191.08517065 -.00000221  00000+0  00000+0 0  9994
2 27380   6.9741  68.9058 0005469  22.5700 195.7302  1.00272023 51993
DIRECTV 5 (TEMPO 1)     
1 27426U 02023A   26191.30802150 -.00000051  00000+0  00000+0 0  9991
2 27426   4.9338  75.0208 0003043  39.1246 174.8663  1.00271025 88354
INTELSAT 905 (IS-905)   
1 27438U 02027A   26190.75554020  .00000100  00000+0  00000+0 0  9990
2 27438   6.8070  69.5248 0003614  44.7572 308.2054  1.00272621 51586
GALAXY 3C (G-3C)        
1 27445U 02030A   26191.26298478 -.00000146  00000+0  00000+0 0  9992
2 27445   3.7900  77.6765 0001540  38.2606 172.1000  1.00270979 46721
INTELSAT 906 (IS-906)   
1 27513U 02041A   26191.19955841  .00000018  00000+0  00000+0 0  9993
2 27513   5.8592  72.6383 0003959  18.7055 332.7527  1.00272124 87250
GALAXY 13 (HORIZONS-1)  
1 27954U 03044A   26191.25206473  .00000142  00000+0  00000+0 0  9991
2 27954   1.4773  83.5703 0002209  20.4589 124.8941  1.00269068 46807
INTELSAT 10-02          
1 28358U 04022A   26191.28153154 -.00000002  00000+0  00000+0 0  9993
2 28358   0.0520 260.4623 0000384  27.8997 100.1928  1.00264463 80785
DIRECTV 8               
1 28659U 05019A   26191.34141279  .00000012  00000+0  00000+0 0  9996
2 28659   0.0148  71.5249 0003046  51.4467 169.1508  1.00270851 77304
GALAXY 28 (G-28)        
1 28702U 05022A   26191.20507015 -.00000193  00000+0  00000+0 0  9999
2 28702   3.3546  78.6476 0002105  36.5256 219.6806  1.00269814 52207
GALAXY 16 (G-16)        
1 29236U 06023A   26191.26211810 -.00000116  00000+0  00000+0 0  9990
2 29236   0.0336 119.2143 0002467 357.3797 166.9548  1.00271508 73202
DIRECTV 9S              
1 29494U 06043A   26191.22356340 -.00000105  00000+0  00000+0 0  9990
2 29494   2.4771  80.6254 0005038  31.4976 155.3089  1.00270972 51614
GALAXY 17 (G-17)        
1 31307U 07016B   26191.26489145 -.00000198  00000+0  00000+0 0  9993
2 31307   3.0270  79.6093 0003592  30.7858 188.1340  1.00271194 70032
INTELSAT 11 (IS-11)     
1 32253U 07044B   26191.21529686 -.00000028  00000+0  00000+0 0  9997
2 32253   3.6222  78.3901 0003979  99.0248 212.7056  0.99050467 68670
HORIZONS-2              
1 32388U 07063B   26191.30808817 -.00000245  00000+0  00000+0 0  9994
2 32388   2.6587  80.3423 0003609  16.7979 228.2122  1.00270902 68049
DIRECTV 11              
1 32729U 08013A   26191.04821574 -.00000114  00000+0  00000+0 0  9990
2 32729   0.0376 213.5585 0000260  20.0966 332.4949  1.00273035 45825
GALAXY 18 (G-18)        
1 32951U 08024A   26191.34066385  .00000000  00000+0  00000+0 0  9996
2 32951   0.0238  34.3606 0002756  88.0414 165.5061  1.00270166 46087
GALAXY 19 (G-19)        
1 33376U 08045A   26191.26255144 -.00000128  00000+0  00000+0 0  9997
2 33376   0.0543 250.3294 0002361 226.4408 168.9247  1.00272460 65133
FM-5                    
1 35493U 09034A   26191.31906358 -.00000189  00000+0  00000+0 0  9991
2 35493   0.0334 277.7695 0000348  38.0404   1.1277  1.00270176 46870
INTELSAT 14 (IS-14)     
1 36097U 09064A   26191.29141795 -.00000263  00000+0  00000+0 0  9991
2 36097   0.0171  21.5837 0002268  92.4455 234.1098  1.00271866 60834
INTELSAT 15 (IS-15)     
1 36106U 09067A   26191.29851829 -.00000174  00000+0  00000+0 0  9992
2 36106   0.0133  46.2936 0002132  70.3937   4.1554  1.00271566 41464
DIRECTV 12              
1 36131U 09075A   26191.31079870 -.00000092  00000+0  00000+0 0  9999
2 36131   0.0415 195.9222 0000389  17.7237  83.7439  1.00270817 46788
INTELSAT 16 (IS-16)     
1 36397U 10006A   26191.30808817 -.00000234  00000+0  00000+0 0  9997
2 36397   0.0118   8.1899 0002256 123.2493 191.5045  1.00271638 59887
XM-5                    
1 37185U 10053A   26191.30635405 -.00000012  00000+0  00000+0 0  9990
2 37185   0.0614 268.0589 0001858 315.7617  59.5021  1.00272157 57714
INTELSAT 17 (IS-17)     
1 37238U 10065B   26191.18914152  .00000010  00000+0  00000+0 0  9994
2 37238   0.0152  87.3979 0002659  24.9211 309.8780  1.00271695 53472
INTELSAT 28 (IS-28)     
1 37392U 11016A   26191.27546484 -.00000216  00000+0  00000+0 0  9990
2 37392   1.8629  82.3359 0003703  36.9458 236.3621  1.00272311 53514
INTELSAT 18 (IS-18)     
1 37834U 11056A   26191.17476771  .00000064  00000+0  00000+0 0  9995
2 37834   0.0299 278.7041 0001726 208.2780  44.0320  1.00273145 54048
INTELSAT 22 (IS-22)     
1 38098U 12011A   26191.19955841  .00000000  00000+0  00000+0 0  9992
2 38098   0.0350  65.2122 0001870  64.9902 301.8490  1.00271096  7415
INTELSAT 19 (IS-19)     
1 38356U 12030A   26190.88691154 -.00000044  00000+0  00000+0 0  9998
2 38356   0.0177  25.6635 0003126  96.1223 291.3213  1.00271536 50678
INTELSAT 20 (IS-20)     
1 38740U 12043A   26190.98725301  .00000000  00000+0  00000+0 0  9993
2 38740   0.0436  68.8286 0003359 128.7460 154.2151  1.00267370 50979
INTELSAT 21 (IS-21)     
1 38749U 12045A   26191.29697285  .00000000  00000+0  00000+0 0  9998
2 38749   0.0271  34.8228 0001693  97.5479 204.7582  1.00270243 50754
